EUTELSAT 8 WEST B       
1 40875U 15039B   25282.13323919 -.00000065  00000+0  00000+0 0  9992
2 40875   0.0688 353.3911 0003749 206.4335 218.1584  1.00271284 37137
EUTELSAT 9B             
1 41310U 16005A   25282.56478620  .00000062  00000+0  00000+0 0  9994
2 41310   0.0644  64.7765 0003567 166.3314 359.6491  1.00271607 35600
EUTELSAT 65 WEST A      
1 41382U 16014A   25282.55005280 -.00000276  00000+0  00000+0 0  9998
2 41382   0.0754  41.6826 0002311 160.4749 309.1017  1.00272803 35025
EUTELSAT 117 WEST B     
1 41589U 16038B   25282.44489157 -.00000012  00000+0  00000+0 0  9998
2 41589   0.0194  56.8530 0000306  29.8450 334.7934  1.00271772 34149
EUTELSAT 172B           
1 42741U 17029B   25282.58617229 -.00000006  00000+0  00000+0 0  9991
2 42741   0.0189 165.9323 0000145  76.5775 158.9773  1.00271352 31212
EUTELSAT 7C             
1 44334U 19034B   25282.36711412  .00000049  00000+0  00000+0 0  9990
2 44334   0.0638 182.9732 0003319   1.2569 333.1804  1.00270494  4326
EUTELSAT 5 WEST B       
1 44624U 19067A   25282.13384586 -.00000041  00000+0  00000+0 0  9994
2 44624   0.0664  13.3587 0003289 189.9904 217.8637  1.00270538 21910
EUTELSAT KONNECT        
1 45027U 20005B   25282.36711412  .00000050  00000+0  00000+0 0  9992
2 45027   0.0687  92.8368 0001610 121.0515 303.7098  1.00269397 21819
